*******************************************************************************
 Revised: November 5, 2015          134340 Pluto                            999
 
 NOTE: Pre-computed solution PLU055/DE433; a fit to all available observations 
 including New Horizons spacecraft encounter tracking.

 PHYSICAL DATA (updated 2018-Aug-15; Mc= Charon mass, radius is IAU 2009):
  Mass x10^22 (kg)      = 1.307+-0.018    Volume, 10^10 km^3    = 0.697
  GM (planet) km^3/s^2  = 869.33907803    Density (R=1195 km)   = 1.86 g/cm^3
  GM 1-sigma, km^3/s^2  =   1.5           Surface gravity       = 0.611 m/s^2 
  Vol. mean radius (km) = 1188.3+-1.6     Mass ratio (Mc/Mp)    = 0.117
  Sidereal rot. period  = 153.29335198 h  Sid. rot. rat, rad/s  = 0.0000113856
  Mean solar day, h     = 153.2820        Mean orbit velocity   = 4.67 km/s
  Sidereal orbit period = 249.58932 yr    Escape speed, km/s    = 1.21            
                                 Perihelion  Aphelion    Mean
  Solar Constant (W/m^2)         1.56        0.56        0.88
  Maximum Planetary IR (W/m^2)   0.8         0.3         0.5
  Minimum Planetary IR (W/m^2)   0.8         0.3         0.5
*******************************************************************************
 
 
*******************************************************************************
Ephemeris / WWW_USER Fri Oct 16 04:06:23 2020 Pasadena, USA      / Horizons
*******************************************************************************
Target body name: Pluto (999)                     {source: plu055l_merged}
Center body name: Sun (10)                        {source: plu055l_merged}
Center-site name: BODY CENTER
*******************************************************************************
Start time      : A.D. 2020-Sep-01 00:00:00.0000 TDB
Stop  time      : A.D. 2020-Oct-01 00:00:00.0000 TDB
Step-size       : 1440 minutes
*******************************************************************************
Center geodetic : 0.00000000,0.00000000,0.0000000 {E-lon(deg),Lat(deg),Alt(km)}
Center cylindric: 0.00000000,0.00000000,0.0000000 {E-lon(deg),Dxy(km),Dz(km)}
Center radii    : 696000.0 x 696000.0 x 696000.0 k{Equator, meridian, pole}    
Output units    : AU-D
Output type     : GEOMETRIC cartesian states
Output format   : 3 (position, velocity, LT, range, range-rate)
Reference frame : Ecliptic of J2000.0
*******************************************************************************
JDTDB
   X     Y     Z
   VX    VY    VZ
   LT    RG    RR
*******************************************************************************
$$SOE
2459093.500000000 = A.D. 2020-Sep-01 00:00:00.0000 TDB 
 X = 1.370090018265341E+01 Y =-3.123258476248061E+01 Z =-6.201482188620383E-01
 VX= 2.963155638535829E-03 VY= 6.048350923146346E-04 VZ=-9.122831231979893E-04
 LT= 1.970098300187658E-01 RG= 3.411119465181374E+01 RR= 6.529553515350494E-04
2459094.500000000 = A.D. 2020-Sep-02 00:00:00.0000 TDB 
 X = 1.370386500461486E+01 Y =-3.123198179273277E+01 Z =-6.210666836792683E-01
 VX= 2.964894055212556E-03 VY= 5.996349613855416E-04 VZ=-9.242227589573165E-04
 LT= 1.970136163630573E-01 RG= 3.411185023700526E+01 RR= 6.589124746110086E-04
2459095.500000000 = A.D. 2020-Sep-03 00:00:00.0000 TDB 
 X = 1.370682694449454E+01 Y =-3.123138718435136E+01 Z =-6.219941009187081E-01
 VX= 2.957846813044396E-03 VY= 5.895230219728765E-04 VZ=-9.287208217962093E-04
 LT= 1.970174427941635E-01 RG= 3.411251276301360E+01 RR= 6.657009312600377E-04
2459096.500000000 = A.D. 2020-Sep-04 00:00:00.0000 TDB 
 X = 1.370977980360306E+01 Y =-3.123080125793681E+01 Z =-6.229201799945510E-01
 VX= 2.948202263671613E-03 VY= 5.837331476032949E-04 VZ=-9.217649431351745E-04
 LT= 1.970212955290386E-01 RG= 3.411317984337834E+01 RR= 6.672768712783133E-04
2459097.500000000 = A.D. 2020-Sep-05 00:00:00.0000 TDB 
 X = 1.371272538312538E+01 Y =-3.123021637566495E+01 Z =-6.238358195449358E-01
 VX= 2.944463218788783E-03 VY= 5.876466356849416E-04 VZ=-9.095512073551207E-04
 LT= 1.970251373860544E-01 RG= 3.411384504030013E+01 RR= 6.622441572112929E-04
2459098.500000000 = A.D. 2020-Sep-06 00:00:00.0000 TDB 
 X = 1.371567188122976E+01 Y =-3.122962374823518E+01 Z =-6.247412227569468E-01
 VX= 2.949871919495359E-03 VY= 5.979939862081542E-04 VZ=-9.029707227419428E-04
 LT= 1.970289409376829E-01 RG= 3.411450360484971E+01 RR= 6.551017549241497E-04
2459099.500000000 = A.D. 2020-Sep-07 00:00:00.0000 TDB 
 X = 1.371862658265518E+01 Y =-3.122902127757736E+01 Z =-6.256457244195716E-01
 VX= 2.959506199473876E-03 VY= 6.057579959491020E-04 VZ=-9.078955716494187E-04
 LT= 1.970327130002953E-01 RG= 3.411515671724516E+01 RR= 6.522365481748466E-04
2459100.500000000 = A.D. 2020-Sep-08 00:00:00.0000 TDB 
 X = 1.372158935314143E+01 Y =-3.122841543450862E+01 Z =-6.265594609197636E-01
 VX= 2.964668869191344E-03 VY= 6.042262400615813E-04 VZ=-9.199241974599483E-04
 LT= 1.970364885632108E-01 RG= 3.411581043569930E+01 RR= 6.562156276912805E-04
2459101.500000000 = A.D. 2020-Sep-09 00:00:00.0000 TDB 
 X = 1.372455276090897E+01 Y =-3.122781547997418E+01 Z =-6.274843206411418E-01
 VX= 2.960659473870446E-03 VY= 5.949869686687341E-04 VZ=-9.283182735880149E-04
 LT= 1.970402995352521E-01 RG= 3.411647028505351E+01 RR= 6.634944605275175E-04
2459102.500000000 = A.D. 2020-Sep-10 00:00:00.0000 TDB 
 X = 1.372750871206470E+01 Y =-3.122722520192714E+01 Z =-6.284122665958837E-01
 VX= 2.950959672316410E-03 VY= 5.864983624588269E-04 VZ=-9.255908218801238E-04
 LT= 1.970441462789355E-01 RG= 3.411713632807557E+01 RR= 6.675900513135063E-04
2459103.500000000 = A.D. 2020-Sep-11 00:00:00.0000 TDB 
 X = 1.373045566556203E+01 Y =-3.122663954299458E+01 Z =-6.293325074517143E-01
 VX= 2.944120594116239E-03 VY= 5.865458622363296E-04 VZ=-9.141691411627510E-04
 LT= 1.970479973142254E-01 RG= 3.411780311416626E+01 RR= 6.648604354163909E-04
2459104.500000000 = A.D. 2020-Sep-12 00:00:00.0000 TDB 
 X = 1.373340000717355E+01 Y =-3.122604910820501E+01 Z =-6.302411166917835E-01
 VX= 2.946147241873860E-03 VY= 5.953079957027780E-04 VZ=-9.042338569188374E-04
 LT= 1.970518173881212E-01 RG= 3.411846453945773E+01 RR= 6.577490371568312E-04
2459105.500000000 = A.D. 2020-Sep-13 00:00:00.0000 TDB 
 X = 1.373635035902902E+01 Y =-3.122544854279753E+01 Z =-6.311445408303396E-01
 VX= 2.955137700158178E-03 VY= 6.051851404633938E-04 VZ=-9.046494732180274E-04
 LT= 1.970555989280516E-01 RG= 3.411911929279994E+01 RR= 6.526133846376284E-04
2459106.500000000 = A.D. 2020-Sep-14 00:00:00.0000 TDB 
 X = 1.373930988337677E+01 Y =-3.122484131648218E+01 Z =-6.320538523424487E-01
 VX= 2.962969505669823E-03 VY= 6.075771679993798E-04 VZ=-9.150415163615019E-04
 LT= 1.970593688240580E-01 RG= 3.411977203005917E+01 RR= 6.540492430871025E-04
2459107.500000000 = A.D. 2020-Sep-15 00:00:00.0000 TDB 
 X = 1.374227345821900E+01 Y =-3.122423662634168E+01 Z =-6.329748632124771E-01
 VX= 2.962557565068960E-03 VY= 6.005695465832134E-04 VZ=-9.261289660854307E-04
 LT= 1.970631644127989E-01 RG= 3.412042921587749E+01 RR= 6.607820427691916E-04
2459108.500000000 = A.D. 2020-Sep-16 00:00:00.0000 TDB 
 X = 1.374523225346757E+01 Y =-3.122364118619756E+01 Z =-6.339029424025300E-01
 VX= 2.954176277772624E-03 VY= 5.906328827537510E-04 VZ=-9.280199686722482E-04
 LT= 1.970670001457444E-01 RG= 3.412109335244936E+01 RR= 6.668134636111478E-04
2459109.500000000 = A.D. 2020-Sep-17 00:00:00.0000 TDB 
 X = 1.374818160652756E+01 Y =-3.122305324324742E+01 Z =-6.348271537784481E-01
 VX= 2.945202108701978E-03 VY= 5.868432320352956E-04 VZ=-9.190259725211662E-04
 LT= 1.970708547253675E-01 RG= 3.412176075222234E+01 RR= 6.667756329071487E-04
2459110.500000000 = A.D. 2020-Sep-18 00:00:00.0000 TDB 
 X = 1.375112517676629E+01 Y =-3.122246414279054E+01 Z =-6.357400050785353E-01
 VX= 2.943541283841551E-03 VY= 5.927989958265743E-04 VZ=-9.071605770049593E-04
 LT= 1.970746901060509E-01 RG= 3.412242482780194E+01 RR= 6.607114719898271E-04
2459111.500000000 = A.D. 2020-Sep-19 00:00:00.0000 TDB 
 X = 1.375407168680796E+01 Y =-3.122186604251697E+01 Z =-6.366441312992384E-01
 VX= 2.950582495968389E-03 VY= 6.034070336069906E-04 VZ=-9.030068126449233E-04
 LT= 1.970784854226620E-01 RG= 3.412308196650245E+01 RR= 6.540418478231955E-04
2459112.500000000 = A.D. 2020-Sep-20 00:00:00.0000 TDB 
 X = 1.375702714138897E+01 Y =-3.122125891326569E+01 Z =-6.375499519074999E-01
 VX= 2.959944917302237E-03 VY= 6.094153432559376E-04 VZ=-9.102706109555186E-04
 LT= 1.970822556323395E-01 RG= 3.412373475807216E+01 RR= 6.527325185529827E-04
2459113.500000000 = A.D. 2020-Sep-21 00:00:00.0000 TDB 
 X = 1.375998946398061E+01 Y =-3.122065056861596E+01 Z =-6.384663698753588E-01
 VX= 2.963174715895257E-03 VY= 6.056791782516965E-04 VZ=-9.224621454197164E-04
 LT= 1.970860381670489E-01 RG= 3.412438968365499E+01 RR= 6.579609527158151E-04
2459114.500000000 = A.D. 2020-Sep-22 00:00:00.0000 TDB 
 X = 1.376295035363485E+01 Y =-3.122004968717065E+01 Z =-6.393928253164491E-01
 VX= 2.957296984337854E-03 VY= 5.957525431598028E-04 VZ=-9.287003055592664E-04
 LT= 1.970898595020688E-01 RG= 3.412505132730334E+01 RR= 6.650689451644517E-04
2459115.500000000 = A.D. 2020-Sep-23 00:00:00.0000 TDB 
 X = 1.376590269351743E+01 Y =-3.121945807211231E+01 Z =-6.403198033517192E-01
 VX= 2.947457991927316E-03 VY= 5.887040458747931E-04 VZ=-9.234212361939778E-04
 LT= 1.970937115510787E-01 RG= 3.412571828891420E+01 RR= 6.677275872843251E-04
2459116.500000000 = A.D. 2020-Sep-24 00:00:00.0000 TDB 
 X = 1.376884689330323E+01 Y =-3.121886904820923E+01 Z =-6.412373198908725E-01
 VX= 2.942333041098184E-03 VY= 5.910352622630628E-04 VZ=-9.113262627620025E-04
 LT= 1.970975588997799E-01 RG= 3.412638443669184E+01 RR= 6.635762176568416E-04
2459117.500000000 = A.D. 2020-Sep-25 00:00:00.0000 TDB 
 X = 1.377179052581587E+01 Y =-3.121827341074236E+01 Z =-6.421438223554939E-01
 VX= 2.946399599569207E-03 VY= 6.008873497948046E-04 VZ=-9.031987103393244E-04
 LT= 1.971013703813611E-01 RG= 3.412704437427016E+01 RR= 6.563274493455790E-04
